[{"OBJECT_NAME":"LEMUR-2-LANGER2SPACE","OBJECT_ID":"2025-061H","EPOCH":"2026-04-27T04:39:24.122016","MEAN_MOTION":15.13895285,"ECCENTRICITY":0.00187189,"INCLINATION":97.5585,"RA_OF_ASC_NODE":93.2547,"ARG_OF_PERICENTER":75.5463,"MEAN_ANOMALY":284.7844,"EPHEMERIS_TYPE":0,"CLASSIFICATION_TYPE":"U","NORAD_CAT_ID":63358,"ELEMENT_SET_NO":999,"REV_AT_EPOCH":5990,"BSTAR":0.00027907582,"MEAN_MOTION_DOT":5.006e-5,"MEAN_MOTION_DDOT":0},{"OBJECT_NAME":"LEMUR-2-BALTO","OBJECT_ID":"2025-052BH","EPOCH":"2026-04-27T05:09:40.545504","MEAN_MOTION":14.99556487,"ECCENTRICITY":0.00013488,"INCLINATION":97.6941,"RA_OF_ASC_NODE":11.4492,"ARG_OF_PERICENTER":179.0919,"MEAN_ANOMALY":181.0307,"EPHEMERIS_TYPE":0,"CLASSIFICATION_TYPE":"U","NORAD_CAT_ID":63395,"ELEMENT_SET_NO":999,"REV_AT_EPOCH":6112,"BSTAR":0.0005337909,"MEAN_MOTION_DOT":6.505e-5,"MEAN_MOTION_DDOT":0},{"OBJECT_NAME":"LEMUR-2-KRISH","OBJECT_ID":"2025-135AK","EPOCH":"2026-04-27T07:20:55.030272","MEAN_MOTION":14.95721822,"ECCENTRICITY":0.00010588,"INCLINATION":97.7669,"RA_OF_ASC_NODE":232.5737,"ARG_OF_PERICENTER":107.5194,"MEAN_ANOMALY":252.6142,"EPHEMERIS_TYPE":0,"CLASSIFICATION_TYPE":"U","NORAD_CAT_ID":64561,"ELEMENT_SET_NO":999,"REV_AT_EPOCH":4631,"BSTAR":0.00058284174,"MEAN_MOTION_DOT":6.436e-5,"MEAN_MOTION_DDOT":0},{"OBJECT_NAME":"LEMUR-2-HUBBLE-4","OBJECT_ID":"2025-135AP","EPOCH":"2026-04-27T06:39:13.212864","MEAN_MOTION":14.93052986,"ECCENTRICITY":0.0003993,"INCLINATION":97.7637,"RA_OF_ASC_NODE":231.8134,"ARG_OF_PERICENTER":99.2531,"MEAN_ANOMALY":260.9141,"EPHEMERIS_TYPE":0,"CLASSIFICATION_TYPE":"U","NORAD_CAT_ID":64565,"ELEMENT_SET_NO":999,"REV_AT_EPOCH":4627,"BSTAR":0.00018863046,"MEAN_MOTION_DOT":1.907e-5,"MEAN_MOTION_DDOT":0},{"OBJECT_NAME":"LEMUR-2-SEJONG-2","OBJECT_ID":"2025-135BL","EPOCH":"2026-04-27T06:53:00.282912","MEAN_MOTION":14.96260607,"ECCENTRICITY":0.00057493,"INCLINATION":97.7625,"RA_OF_ASC_NODE":232.6938,"ARG_OF_PERICENTER":127.0958,"MEAN_ANOMALY":233.079,"EPHEMERIS_TYPE":0,"CLASSIFICATION_TYPE":"U","NORAD_CAT_ID":64586,"ELEMENT_SET_NO":999,"REV_AT_EPOCH":4633,"BSTAR":0.00047816953,"MEAN_MOTION_DOT":5.344e-5,"MEAN_MOTION_DDOT":0},{"OBJECT_NAME":"LEMUR-2-HUBBLE-5","OBJECT_ID":"2025-135BT","EPOCH":"2026-04-27T07:47:29.811840","MEAN_MOTION":14.93975969,"ECCENTRICITY":0.00066415,"INCLINATION":97.7653,"RA_OF_ASC_NODE":232.422,"ARG_OF_PERICENTER":138.5434,"MEAN_ANOMALY":221.6291,"EPHEMERIS_TYPE":0,"CLASSIFICATION_TYPE":"U","NORAD_CAT_ID":64840,"ELEMENT_SET_NO":999,"REV_AT_EPOCH":4631,"BSTAR":0.00020532817,"MEAN_MOTION_DOT":2.131e-5,"MEAN_MOTION_DDOT":0},{"OBJECT_NAME":"LEMUR-2-KARENDARRELL","OBJECT_ID":"2025-135BU","EPOCH":"2026-04-27T06:40:03.331776","MEAN_MOTION":14.99401014,"ECCENTRICITY":0.00092775,"INCLINATION":97.7672,"RA_OF_ASC_NODE":233.6003,"ARG_OF_PERICENTER":46.2943,"MEAN_ANOMALY":313.9046,"EPHEMERIS_TYPE":0,"CLASSIFICATION_TYPE":"U","NORAD_CAT_ID":64841,"ELEMENT_SET_NO":999,"REV_AT_EPOCH":4638,"BSTAR":0.00091602691,"MEAN_MOTION_DOT":0.00011176,"MEAN_MOTION_DDOT":0},{"OBJECT_NAME":"LEMUR-2-LUCILLE-ROSE","OBJECT_ID":"2025-135BV","EPOCH":"2026-04-27T06:04:00.258528","MEAN_MOTION":14.99394708,"ECCENTRICITY":0.0011002,"INCLINATION":97.7647,"RA_OF_ASC_NODE":233.5637,"ARG_OF_PERICENTER":95.1016,"MEAN_ANOMALY":265.1463,"EPHEMERIS_TYPE":0,"CLASSIFICATION_TYPE":"U","NORAD_CAT_ID":65403,"ELEMENT_SET_NO":999,"REV_AT_EPOCH":4100,"BSTAR":0.00088361898,"MEAN_MOTION_DOT":0.0001078,"MEAN_MOTION_DDOT":0},{"OBJECT_NAME":"LEMUR-2-AFFIE-WAUWIE","OBJECT_ID":"2025-248C","EPOCH":"2026-04-27T03:16:07.836384","MEAN_MOTION":15.25427228,"ECCENTRICITY":0.00089603,"INCLINATION":45.3993,"RA_OF_ASC_NODE":31.222,"ARG_OF_PERICENTER":156.4634,"MEAN_ANOMALY":203.6666,"EPHEMERIS_TYPE":0,"CLASSIFICATION_TYPE":"U","NORAD_CAT_ID":66295,"ELEMENT_SET_NO":999,"REV_AT_EPOCH":2679,"BSTAR":0.0010635759,"MEAN_MOTION_DOT":0.00027207,"MEAN_MOTION_DDOT":0},{"OBJECT_NAME":"LEMUR-2-DEANANDMAEVE","OBJECT_ID":"2025-276N","EPOCH":"2026-04-27T03:26:19.661568","MEAN_MOTION":15.19073827,"ECCENTRICITY":0.00063944,"INCLINATION":97.4229,"RA_OF_ASC_NODE":191.4877,"ARG_OF_PERICENTER":164.1683,"MEAN_ANOMALY":195.9753,"EPHEMERIS_TYPE":0,"CLASSIFICATION_TYPE":"U","NORAD_CAT_ID":66678,"ELEMENT_SET_NO":999,"REV_AT_EPOCH":2266,"BSTAR":0.00044618038,"MEAN_MOTION_DOT":9.298e-5,"MEAN_MOTION_DDOT":0},{"OBJECT_NAME":"LEMUR-2-STAS-GORBUK","OBJECT_ID":"2025-276W","EPOCH":"2026-04-27T05:07:21.760320","MEAN_MOTION":15.18815767,"ECCENTRICITY":0.00060458,"INCLINATION":97.4265,"RA_OF_ASC_NODE":191.612,"ARG_OF_PERICENTER":158.4045,"MEAN_ANOMALY":201.7445,"EPHEMERIS_TYPE":0,"CLASSIFICATION_TYPE":"U","NORAD_CAT_ID":66686,"ELEMENT_SET_NO":999,"REV_AT_EPOCH":2267,"BSTAR":0.00037250569,"MEAN_MOTION_DOT":7.692e-5,"MEAN_MOTION_DDOT":0},{"OBJECT_NAME":"LEMUR-2-TEODOR","OBJECT_ID":"2025-276DG","EPOCH":"2026-04-27T04:29:38.598720","MEAN_MOTION":15.20483085,"ECCENTRICITY":0.00012478,"INCLINATION":97.4167,"RA_OF_ASC_NODE":191.7587,"ARG_OF_PERICENTER":74.331,"MEAN_ANOMALY":285.8063,"EPHEMERIS_TYPE":0,"CLASSIFICATION_TYPE":"U","NORAD_CAT_ID":66768,"ELEMENT_SET_NO":999,"REV_AT_EPOCH":2269,"BSTAR":0.00032594107,"MEAN_MOTION_DOT":7.053e-5,"MEAN_MOTION_DDOT":0},{"OBJECT_NAME":"LEMUR-2-LAILA","OBJECT_ID":"2025-276DQ","EPOCH":"2026-04-27T04:02:33.546912","MEAN_MOTION":15.20695882,"ECCENTRICITY":0.00018258,"INCLINATION":97.4192,"RA_OF_ASC_NODE":191.8286,"ARG_OF_PERICENTER":57.8868,"MEAN_ANOMALY":302.2544,"EPHEMERIS_TYPE":0,"CLASSIFICATION_TYPE":"U","NORAD_CAT_ID":66776,"ELEMENT_SET_NO":999,"REV_AT_EPOCH":2269,"BSTAR":0.00033765618,"MEAN_MOTION_DOT":7.355e-5,"MEAN_MOTION_DDOT":0},{"OBJECT_NAME":"LEMUR-2-CELIJO-SB-PK","OBJECT_ID":"2025-276DW","EPOCH":"2026-04-27T04:36:38.828448","MEAN_MOTION":14.99314354,"ECCENTRICITY":0.00086094,"INCLINATION":97.5248,"RA_OF_ASC_NODE":189.6615,"ARG_OF_PERICENTER":304.4485,"MEAN_ANOMALY":55.5924,"EPHEMERIS_TYPE":0,"CLASSIFICATION_TYPE":"U","NORAD_CAT_ID":66781,"ELEMENT_SET_NO":999,"REV_AT_EPOCH":1498,"BSTAR":0.00060153884,"MEAN_MOTION_DOT":7.3e-5,"MEAN_MOTION_DDOT":0},{"OBJECT_NAME":"LEMUR-2-FINNIAN","OBJECT_ID":"2025-276DX","EPOCH":"2026-04-27T04:24:11.979072","MEAN_MOTION":14.99769519,"ECCENTRICITY":0.00052791,"INCLINATION":97.5268,"RA_OF_ASC_NODE":189.8405,"ARG_OF_PERICENTER":283.3484,"MEAN_ANOMALY":76.7151,"EPHEMERIS_TYPE":0,"CLASSIFICATION_TYPE":"U","NORAD_CAT_ID":66782,"ELEMENT_SET_NO":999,"REV_AT_EPOCH":1235,"BSTAR":0.00057974689,"MEAN_MOTION_DOT":7.114e-5,"MEAN_MOTION_DDOT":0},{"OBJECT_NAME":"LEMUR-2-STARLIGHT","OBJECT_ID":"2025-276DY","EPOCH":"2026-04-27T03:54:42.790464","MEAN_MOTION":14.98552126,"ECCENTRICITY":0.00128251,"INCLINATION":97.5291,"RA_OF_ASC_NODE":189.5588,"ARG_OF_PERICENTER":308.6306,"MEAN_ANOMALY":51.3768,"EPHEMERIS_TYPE":0,"CLASSIFICATION_TYPE":"U","NORAD_CAT_ID":66783,"ELEMENT_SET_NO":999,"REV_AT_EPOCH":2255,"BSTAR":0.00056100886,"MEAN_MOTION_DOT":6.676e-5,"MEAN_MOTION_DDOT":0}]
