LEMUR-2-LANGER2SPACE    
1 63358U 25061H   26117.19402919  .00005006  00000+0  27908-3 0  9990
2 63358  97.5585  93.2547 0018718  75.5463 284.7844 15.13895285 59908
LEMUR-2-BALTO           
1 63395U 25052BH  26117.21505261  .00006505  00000+0  53379-3 0  9994
2 63395  97.6941  11.4492 0001348 179.0919 181.0307 14.99556487 61125
LEMUR-2-KRISH           
1 64561U 25135AK  26117.30619248  .00006436  00000+0  58284-3 0  9996
2 64561  97.7669 232.5737 0001058 107.5194 252.6142 14.95721822 46315
LEMUR-2-HUBBLE-4        
1 64565U 25135AP  26117.27723626  .00001907  00000+0  18863-3 0  9999
2 64565  97.7637 231.8134 0003993  99.2531 260.9141 14.93052986 46271
LEMUR-2-SEJONG-2        
1 64586U 25135BL  26117.28680883  .00005344  00000+0  47817-3 0  9990
2 64586  97.7625 232.6938 0005749 127.0958 233.0790 14.96260607 46338
LEMUR-2-HUBBLE-5        
1 64840U 25135BT  26117.32465060  .00002131  00000+0  20533-3 0  9993
2 64840  97.7653 232.4220 0006641 138.5434 221.6291 14.93975969 46310
LEMUR-2-KARENDARRELL    
1 64841U 25135BU  26117.27781634  .00011176  00000+0  91603-3 0  9991
2 64841  97.7672 233.6003 0009277  46.2943 313.9046 14.99401014 46383
LEMUR-2-LUCILLE-ROSE    
1 65403U 25135BV  26117.25278077  .00010780  00000+0  88362-3 0  9994
2 65403  97.7647 233.5637 0011002  95.1016 265.1463 14.99394708 41001
LEMUR-2-AFFIE-WAUWIE    
1 66295U 25248C   26117.13620181  .00027207  00000+0  10636-2 0  9993
2 66295  45.3993  31.2220 0008960 156.4634 203.6666 15.25427228 26796
LEMUR-2-DEANANDMAEVE    
1 66678U 25276N   26117.14328312  .00009298  00000+0  44618-3 0  9999
2 66678  97.4229 191.4877 0006394 164.1683 195.9753 15.19073827 22664
LEMUR-2-STAS-GORBUK     
1 66686U 25276W   26117.21344630  .00007692  00000+0  37251-3 0  9998
2 66686  97.4265 191.6120 0006045 158.4045 201.7445 15.18815767 22678
LEMUR-2-TEODOR          
1 66768U 25276DG  26117.18725230  .00007053  00000+0  32594-3 0  9990
2 66768  97.4167 191.7587 0001247  74.3310 285.8063 15.20483085 22696
LEMUR-2-LAILA           
1 66776U 25276DQ  26117.16844383  .00007355  00000+0  33766-3 0  9995
2 66776  97.4192 191.8286 0001825  57.8868 302.2544 15.20695882 22694
LEMUR-2-CELIJO-SB-PK    
1 66781U 25276DW  26117.19211607  .00007300  00000+0  60154-3 0  9992
2 66781  97.5248 189.6615 0008609 304.4485  55.5924 14.99314354 14987
LEMUR-2-FINNIAN         
1 66782U 25276DX  26117.18347198  .00007114  00000+0  57975-3 0  9997
2 66782  97.5268 189.8405 0005279 283.3484  76.7151 14.99769519 12356
LEMUR-2-STARLIGHT       
1 66783U 25276DY  26117.16299526  .00006676  00000+0  56101-3 0  9999
2 66783  97.5291 189.5588 0012825 308.6306  51.3768 14.98552126 22550
